CCSDS_OMM_VERS = 2.0
CREATION_DATE  = 
ORIGINATOR     = 

OBJECT_NAME    = STARLINK-35326
OBJECT_ID      = 2025-232AC
CENTER_NAME    = EARTH
REF_FRAME      = TEME
TIME_SYSTEM    = UTC
MEAN_ELEMENT_THEORY = SGP/SGP4

EPOCH          = 2025-11-14T14:25:17.018688
MEAN_MOTION    = 15.49367293
ECCENTRICITY   = .0002305
INCLINATION    = 53.1589
RA_OF_ASC_NODE = 279.2743
ARG_OF_PERICENTER = 74.3973
MEAN_ANOMALY   = 285.7291

EPHEMERIS_TYPE = 0
CLASSIFICATION_TYPE = U
NORAD_CAT_ID   = 66031
ELEMENT_SET_NO = 999
REV_AT_EPOCH   = 580
BSTAR          = .16956E-2
MEAN_MOTION_DOT = .95212E-3
MEAN_MOTION_DDOT = 0

CCSDS_OMM_VERS = 2.0
CREATION_DATE  = 
ORIGINATOR     = 

OBJECT_NAME    = STARLINK-35311
OBJECT_ID      = 2025-232AD
CENTER_NAME    = EARTH
REF_FRAME      = TEME
TIME_SYSTEM    = UTC
MEAN_ELEMENT_THEORY = SGP/SGP4

EPOCH          = 2025-11-14T20:36:22.557024
MEAN_MOTION    = 15.49336218
ECCENTRICITY   = .0001933
INCLINATION    = 53.1574
RA_OF_ASC_NODE = 278.0391
ARG_OF_PERICENTER = 74.5459
MEAN_ANOMALY   = 285.5764

EPHEMERIS_TYPE = 0
CLASSIFICATION_TYPE = U
NORAD_CAT_ID   = 66032
ELEMENT_SET_NO = 999
REV_AT_EPOCH   = 584
BSTAR          = .1546E-2
MEAN_MOTION_DOT = .86577E-3
MEAN_MOTION_DDOT = 0

CCSDS_OMM_VERS = 2.0
CREATION_DATE  = 
ORIGINATOR     = 

OBJECT_NAME    = QIANFAN-91
OBJECT_ID      = 2025-233A
CENTER_NAME    = EARTH
REF_FRAME      = TEME
TIME_SYSTEM    = UTC
MEAN_ELEMENT_THEORY = SGP/SGP4

EPOCH          = 2025-11-15T07:52:31.973376
MEAN_MOTION    = 14.21913103
ECCENTRICITY   = .0016413
INCLINATION    = 88.9943
RA_OF_ASC_NODE = 65.1971
ARG_OF_PERICENTER = 120.6121
MEAN_ANOMALY   = 239.6691

EPHEMERIS_TYPE = 0
CLASSIFICATION_TYPE = U
NORAD_CAT_ID   = 66033
ELEMENT_SET_NO = 999
REV_AT_EPOCH   = 413
BSTAR          = .45672E-3
MEAN_MOTION_DOT = .1022E-4
MEAN_MOTION_DDOT = 0

CCSDS_OMM_VERS = 2.0
CREATION_DATE  = 
ORIGINATOR     = 

OBJECT_NAME    = QIANFAN-92
OBJECT_ID      = 2025-233B
CENTER_NAME    = EARTH
REF_FRAME      = TEME
TIME_SYSTEM    = UTC
MEAN_ELEMENT_THEORY = SGP/SGP4

EPOCH          = 2025-11-14T14:58:30.626976
MEAN_MOTION    = 14.22369346
ECCENTRICITY   = .0016494
INCLINATION    = 88.9958
RA_OF_ASC_NODE = 65.2691
ARG_OF_PERICENTER = 123.0711
MEAN_ANOMALY   = 237.2067

EPHEMERIS_TYPE = 0
CLASSIFICATION_TYPE = U
NORAD_CAT_ID   = 66034
ELEMENT_SET_NO = 999
REV_AT_EPOCH   = 403
BSTAR          = .48637E-3
MEAN_MOTION_DOT = .1097E-4
MEAN_MOTION_DDOT = 0

CCSDS_OMM_VERS = 2.0
CREATION_DATE  = 
ORIGINATOR     = 

OBJECT_NAME    = QIANFAN-93
OBJECT_ID      = 2025-233C
CENTER_NAME    = EARTH
REF_FRAME      = TEME
TIME_SYSTEM    = UTC
MEAN_ELEMENT_THEORY = SGP/SGP4

EPOCH          = 2025-11-15T06:05:33.135072
MEAN_MOTION    = 14.22546147
ECCENTRICITY   = .0016359
INCLINATION    = 88.9961
RA_OF_ASC_NODE = 65.1965
ARG_OF_PERICENTER = 122.3494
MEAN_ANOMALY   = 237.9284

EPHEMERIS_TYPE = 0
CLASSIFICATION_TYPE = U
NORAD_CAT_ID   = 66035
ELEMENT_SET_NO = 999
REV_AT_EPOCH   = 412
BSTAR          = .53206E-3
MEAN_MOTION_DOT = .1203E-4
MEAN_MOTION_DDOT = 0

CCSDS_OMM_VERS = 2.0
CREATION_DATE  = 
ORIGINATOR     = 

OBJECT_NAME    = QIANFAN-94
OBJECT_ID      = 2025-233D
CENTER_NAME    = EARTH
REF_FRAME      = TEME
TIME_SYSTEM    = UTC
MEAN_ELEMENT_THEORY = SGP/SGP4

EPOCH          = 2025-11-14T14:55:24.485088
MEAN_MOTION    = 14.22350782
ECCENTRICITY   = .001605
INCLINATION    = 88.9960
RA_OF_ASC_NODE = 65.2692
ARG_OF_PERICENTER = 122.2945
MEAN_ANOMALY   = 237.9803

EPHEMERIS_TYPE = 0
CLASSIFICATION_TYPE = U
NORAD_CAT_ID   = 66036
ELEMENT_SET_NO = 999
REV_AT_EPOCH   = 403
BSTAR          = .49238E-3
MEAN_MOTION_DOT = .111E-4
MEAN_MOTION_DDOT = 0

CCSDS_OMM_VERS = 2.0
CREATION_DATE  = 
ORIGINATOR     = 

OBJECT_NAME    = QIANFAN-95
OBJECT_ID      = 2025-233E
CENTER_NAME    = EARTH
REF_FRAME      = TEME
TIME_SYSTEM    = UTC
MEAN_ELEMENT_THEORY = SGP/SGP4

EPOCH          = 2025-11-15T11:01:24.866976
MEAN_MOTION    = 14.26178473
ECCENTRICITY   = .0016222
INCLINATION    = 88.9961
RA_OF_ASC_NODE = 65.1715
ARG_OF_PERICENTER = 121.9862
MEAN_ANOMALY   = 238.2911

EPHEMERIS_TYPE = 0
CLASSIFICATION_TYPE = U
NORAD_CAT_ID   = 66037
ELEMENT_SET_NO = 999
REV_AT_EPOCH   = 415
BSTAR          = .54363E-3
MEAN_MOTION_DOT = .1317E-4
MEAN_MOTION_DDOT = 0

CCSDS_OMM_VERS = 2.0
CREATION_DATE  = 
ORIGINATOR     = 

OBJECT_NAME    = QIANFAN-96
OBJECT_ID      = 2025-233F
CENTER_NAME    = EARTH
REF_FRAME      = TEME
TIME_SYSTEM    = UTC
MEAN_ELEMENT_THEORY = SGP/SGP4

EPOCH          = 2025-11-14T13:13:21.883872
MEAN_MOTION    = 14.22262821
ECCENTRICITY   = .001669
INCLINATION    = 88.9959
RA_OF_ASC_NODE = 65.2770
ARG_OF_PERICENTER = 125.3092
MEAN_ANOMALY   = 234.9663

EPHEMERIS_TYPE = 0
CLASSIFICATION_TYPE = U
NORAD_CAT_ID   = 66038
ELEMENT_SET_NO = 999
REV_AT_EPOCH   = 402
BSTAR          = .42982E-3
MEAN_MOTION_DOT = .97E-5
MEAN_MOTION_DDOT = 0

CCSDS_OMM_VERS = 2.0
CREATION_DATE  = 
ORIGINATOR     = 

OBJECT_NAME    = QIANFAN-97
OBJECT_ID      = 2025-233G
CENTER_NAME    = EARTH
REF_FRAME      = TEME
TIME_SYSTEM    = UTC
MEAN_ELEMENT_THEORY = SGP/SGP4

EPOCH          = 2025-11-15T06:05:12.005088
MEAN_MOTION    = 14.21339758
ECCENTRICITY   = .0017258
INCLINATION    = 88.9964
RA_OF_ASC_NODE = 65.2139
ARG_OF_PERICENTER = 126.9805
MEAN_ANOMALY   = 233.2969

EPHEMERIS_TYPE = 0
CLASSIFICATION_TYPE = U
NORAD_CAT_ID   = 66039
ELEMENT_SET_NO = 999
REV_AT_EPOCH   = 412
BSTAR          = .48059E-3
MEAN_MOTION_DOT = .1064E-4
MEAN_MOTION_DDOT = 0

CCSDS_OMM_VERS = 2.0
CREATION_DATE  = 
ORIGINATOR     = 

OBJECT_NAME    = QIANFAN-98
OBJECT_ID      = 2025-233H
CENTER_NAME    = EARTH
REF_FRAME      = TEME
TIME_SYSTEM    = UTC
MEAN_ELEMENT_THEORY = SGP/SGP4

EPOCH          = 2025-11-15T11:00:12.946752
MEAN_MOTION    = 14.26209079
ECCENTRICITY   = .0016069
INCLINATION    = 88.9961
RA_OF_ASC_NODE = 65.1715
ARG_OF_PERICENTER = 122.1194
MEAN_ANOMALY   = 238.1561

EPHEMERIS_TYPE = 0
CLASSIFICATION_TYPE = U
NORAD_CAT_ID   = 66040
ELEMENT_SET_NO = 999
REV_AT_EPOCH   = 415
BSTAR          = .52793E-3
MEAN_MOTION_DOT = .128E-4
MEAN_MOTION_DDOT = 0

CCSDS_OMM_VERS = 2.0
CREATION_DATE  = 
ORIGINATOR     = 

OBJECT_NAME    = QIANFAN-99
OBJECT_ID      = 2025-233J
CENTER_NAME    = EARTH
REF_FRAME      = TEME
TIME_SYSTEM    = UTC
MEAN_ELEMENT_THEORY = SGP/SGP4

EPOCH          = 2025-11-15T02:42:15.254784
MEAN_MOTION    = 14.21795259
ECCENTRICITY   = .0013676
INCLINATION    = 88.9995
RA_OF_ASC_NODE = 65.2072
ARG_OF_PERICENTER = 112.1668
MEAN_ANOMALY   = 248.0976

EPHEMERIS_TYPE = 0
CLASSIFICATION_TYPE = U
NORAD_CAT_ID   = 66041
ELEMENT_SET_NO = 999
REV_AT_EPOCH   = 410
BSTAR          = .4799E-3
MEAN_MOTION_DOT = .1071E-4
MEAN_MOTION_DDOT = 0

CCSDS_OMM_VERS = 2.0
CREATION_DATE  = 
ORIGINATOR     = 

OBJECT_NAME    = QIANFAN-100
OBJECT_ID      = 2025-233K
CENTER_NAME    = EARTH
REF_FRAME      = TEME
TIME_SYSTEM    = UTC
MEAN_ELEMENT_THEORY = SGP/SGP4

EPOCH          = 2025-11-14T14:47:14.214336
MEAN_MOTION    = 14.26237761
ECCENTRICITY   = .0016622
INCLINATION    = 88.9960
RA_OF_ASC_NODE = 65.2682
ARG_OF_PERICENTER = 125.1842
MEAN_ANOMALY   = 235.0911

EPHEMERIS_TYPE = 0
CLASSIFICATION_TYPE = U
NORAD_CAT_ID   = 66042
ELEMENT_SET_NO = 999
REV_AT_EPOCH   = 403
BSTAR          = .55129E-3
MEAN_MOTION_DOT = .1337E-4
MEAN_MOTION_DDOT = 0

